ORBCOMM FM33            
1 25983U 99065D   25086.08310037  .00003903  00000+0  12783-2 0  9996
2 25983  45.0288  29.2424 0009632   1.9147 358.1738 14.39731858324307
ORBCOMM FM36            
1 25984U 99065E   25086.14833207  .00003656  00000+0  12480-2 0  9992
2 25984  45.0373 119.6035 0005490 259.3728 100.6502 14.37818446323201
ORBCOMM FM35            
1 25985U 99065F   25086.13964313  .00002876  00000+0  10117-2 0  9993
2 25985  45.0378 124.0376 0004689 315.4888  44.5584 14.36830275323170
ORBCOMM FM34            
1 25986U 99065G   25085.82938808  .00002592  00000+0  91588-3 0  9996
2 25986  45.0372 125.9978 0005976 281.3784  78.6392 14.36872224323051
ORBCOMM FM38            
1 33060U 08031A   25086.04412608  .00006299  00000+0  83402-3 0  9995
2 33060  48.4413 346.5935 0005041  43.6430 316.4883 14.80833491902569
ORBCOMM FM41            
1 33061U 08031B   25086.18236823  .00006090  00000+0  81476-3 0  9992
2 33061  48.4450 353.4360 0004306  28.1988  92.4208 14.80446894902524
ORBCOMM FM29            
1 33062U 08031C   25085.81949779  .00005964  00000+0  79715-3 0  9995
2 33062  48.4402   3.0658 0006126  26.1500  15.6313 14.80511767901941
ORBCOMM FM39            
1 33063U 08031D   25085.89832915  .00006090  00000+0  84030-3 0  9994
2 33063  48.4407  26.0750 0007258 359.1120   0.9781 14.79124129902036
