<?xml version="1.0" encoding="UTF-8"?>
<ndm xmlns:xsi="http://www.w3.org/2001/XMLSchema-instance" xsi:noNamespaceSchemaLocation="https://sanaregistry.org/r/ndmxml_unqualified/ndmxml-2.0.0-master-2.0.xsd">
<omm id="CCSDS_OMM_VERS" version="2.0">
<header><CREATION_DATE/><ORIGINATOR/></header><body><segment><metadata><OBJECT_NAME>ORBCOMM FM33</OBJECT_NAME><OBJECT_ID>1999-065D</OBJECT_ID><CENTER_NAME>EARTH</CENTER_NAME><REF_FRAME>TEME</REF_FRAME><TIME_SYSTEM>UTC</TIME_SYSTEM><MEAN_ELEMENT_THEORY>SGP4</MEAN_ELEMENT_THEORY></metadata><data><meanElements><EPOCH>2025-03-27T01:59:39.871968</EPOCH><MEAN_MOTION>14.39731858</MEAN_MOTION><ECCENTRICITY>.0009632</ECCENTRICITY><INCLINATION>45.0288</INCLINATION><RA_OF_ASC_NODE>29.2424</RA_OF_ASC_NODE><ARG_OF_PERICENTER>1.9147</ARG_OF_PERICENTER><MEAN_ANOMALY>358.1738</MEAN_ANOMALY></meanElements><tleParameters><EPHEMERIS_TYPE>0</EPHEMERIS_TYPE><CLASSIFICATION_TYPE>U</CLASSIFICATION_TYPE><NORAD_CAT_ID>25983</NORAD_CAT_ID><ELEMENT_SET_NO>999</ELEMENT_SET_NO><REV_AT_EPOCH>32430</REV_AT_EPOCH><BSTAR>.12783E-2</BSTAR><MEAN_MOTION_DOT>.3903E-4</MEAN_MOTION_DOT><MEAN_MOTION_DDOT>0</MEAN_MOTION_DDOT></tleParameters></data></segment></body></omm>
<omm id="CCSDS_OMM_VERS" version="2.0">
<header><CREATION_DATE/><ORIGINATOR/></header><body><segment><metadata><OBJECT_NAME>ORBCOMM FM36</OBJECT_NAME><OBJECT_ID>1999-065E</OBJECT_ID><CENTER_NAME>EARTH</CENTER_NAME><REF_FRAME>TEME</REF_FRAME><TIME_SYSTEM>UTC</TIME_SYSTEM><MEAN_ELEMENT_THEORY>SGP4</MEAN_ELEMENT_THEORY></metadata><data><meanElements><EPOCH>2025-03-27T03:33:35.890848</EPOCH><MEAN_MOTION>14.37818446</MEAN_MOTION><ECCENTRICITY>.000549</ECCENTRICITY><INCLINATION>45.0373</INCLINATION><RA_OF_ASC_NODE>119.6035</RA_OF_ASC_NODE><ARG_OF_PERICENTER>259.3728</ARG_OF_PERICENTER><MEAN_ANOMALY>100.6502</MEAN_ANOMALY></meanElements><tleParameters><EPHEMERIS_TYPE>0</EPHEMERIS_TYPE><CLASSIFICATION_TYPE>U</CLASSIFICATION_TYPE><NORAD_CAT_ID>25984</NORAD_CAT_ID><ELEMENT_SET_NO>999</ELEMENT_SET_NO><REV_AT_EPOCH>32320</REV_AT_EPOCH><BSTAR>.1248E-2</BSTAR><MEAN_MOTION_DOT>.3656E-4</MEAN_MOTION_DOT><MEAN_MOTION_DDOT>0</MEAN_MOTION_DDOT></tleParameters></data></segment></body></omm>
<omm id="CCSDS_OMM_VERS" version="2.0">
<header><CREATION_DATE/><ORIGINATOR/></header><body><segment><metadata><OBJECT_NAME>ORBCOMM FM35</OBJECT_NAME><OBJECT_ID>1999-065F</OBJECT_ID><CENTER_NAME>EARTH</CENTER_NAME><REF_FRAME>TEME</REF_FRAME><TIME_SYSTEM>UTC</TIME_SYSTEM><MEAN_ELEMENT_THEORY>SGP4</MEAN_ELEMENT_THEORY></metadata><data><meanElements><EPOCH>2025-03-27T03:21:05.166432</EPOCH><MEAN_MOTION>14.36830275</MEAN_MOTION><ECCENTRICITY>.0004689</ECCENTRICITY><INCLINATION>45.0378</INCLINATION><RA_OF_ASC_NODE>124.0376</RA_OF_ASC_NODE><ARG_OF_PERICENTER>315.4888</ARG_OF_PERICENTER><MEAN_ANOMALY>44.5584</MEAN_ANOMALY></meanElements><tleParameters><EPHEMERIS_TYPE>0</EPHEMERIS_TYPE><CLASSIFICATION_TYPE>U</CLASSIFICATION_TYPE><NORAD_CAT_ID>25985</NORAD_CAT_ID><ELEMENT_SET_NO>999</ELEMENT_SET_NO><REV_AT_EPOCH>32317</REV_AT_EPOCH><BSTAR>.10117E-2</BSTAR><MEAN_MOTION_DOT>.2876E-4</MEAN_MOTION_DOT><MEAN_MOTION_DDOT>0</MEAN_MOTION_DDOT></tleParameters></data></segment></body></omm>
<omm id="CCSDS_OMM_VERS" version="2.0">
<header><CREATION_DATE/><ORIGINATOR/></header><body><segment><metadata><OBJECT_NAME>ORBCOMM FM34</OBJECT_NAME><OBJECT_ID>1999-065G</OBJECT_ID><CENTER_NAME>EARTH</CENTER_NAME><REF_FRAME>TEME</REF_FRAME><TIME_SYSTEM>UTC</TIME_SYSTEM><MEAN_ELEMENT_THEORY>SGP4</MEAN_ELEMENT_THEORY></metadata><data><meanElements><EPOCH>2025-03-26T19:54:19.130112</EPOCH><MEAN_MOTION>14.36872224</MEAN_MOTION><ECCENTRICITY>.0005976</ECCENTRICITY><INCLINATION>45.0372</INCLINATION><RA_OF_ASC_NODE>125.9978</RA_OF_ASC_NODE><ARG_OF_PERICENTER>281.3784</ARG_OF_PERICENTER><MEAN_ANOMALY>78.6392</MEAN_ANOMALY></meanElements><tleParameters><EPHEMERIS_TYPE>0</EPHEMERIS_TYPE><CLASSIFICATION_TYPE>U</CLASSIFICATION_TYPE><NORAD_CAT_ID>25986</NORAD_CAT_ID><ELEMENT_SET_NO>999</ELEMENT_SET_NO><REV_AT_EPOCH>32305</REV_AT_EPOCH><BSTAR>.91588E-3</BSTAR><MEAN_MOTION_DOT>.2592E-4</MEAN_MOTION_DOT><MEAN_MOTION_DDOT>0</MEAN_MOTION_DDOT></tleParameters></data></segment></body></omm>
<omm id="CCSDS_OMM_VERS" version="2.0">
<header><CREATION_DATE/><ORIGINATOR/></header><body><segment><metadata><OBJECT_NAME>ORBCOMM FM38</OBJECT_NAME><OBJECT_ID>2008-031A</OBJECT_ID><CENTER_NAME>EARTH</CENTER_NAME><REF_FRAME>TEME</REF_FRAME><TIME_SYSTEM>UTC</TIME_SYSTEM><MEAN_ELEMENT_THEORY>SGP4</MEAN_ELEMENT_THEORY></metadata><data><meanElements><EPOCH>2025-03-27T01:03:32.493312</EPOCH><MEAN_MOTION>14.80833491</MEAN_MOTION><ECCENTRICITY>.0005041</ECCENTRICITY><INCLINATION>48.4413</INCLINATION><RA_OF_ASC_NODE>346.5935</RA_OF_ASC_NODE><ARG_OF_PERICENTER>43.6430</ARG_OF_PERICENTER><MEAN_ANOMALY>316.4883</MEAN_ANOMALY></meanElements><tleParameters><EPHEMERIS_TYPE>0</EPHEMERIS_TYPE><CLASSIFICATION_TYPE>U</CLASSIFICATION_TYPE><NORAD_CAT_ID>33060</NORAD_CAT_ID><ELEMENT_SET_NO>999</ELEMENT_SET_NO><REV_AT_EPOCH>90256</REV_AT_EPOCH><BSTAR>.83402E-3</BSTAR><MEAN_MOTION_DOT>.6299E-4</MEAN_MOTION_DOT><MEAN_MOTION_DDOT>0</MEAN_MOTION_DDOT></tleParameters></data></segment></body></omm>
<omm id="CCSDS_OMM_VERS" version="2.0">
<header><CREATION_DATE/><ORIGINATOR/></header><body><segment><metadata><OBJECT_NAME>ORBCOMM FM41</OBJECT_NAME><OBJECT_ID>2008-031B</OBJECT_ID><CENTER_NAME>EARTH</CENTER_NAME><REF_FRAME>TEME</REF_FRAME><TIME_SYSTEM>UTC</TIME_SYSTEM><MEAN_ELEMENT_THEORY>SGP4</MEAN_ELEMENT_THEORY></metadata><data><meanElements><EPOCH>2025-03-27T04:22:36.615072</EPOCH><MEAN_MOTION>14.80446894</MEAN_MOTION><ECCENTRICITY>.0004306</ECCENTRICITY><INCLINATION>48.4450</INCLINATION><RA_OF_ASC_NODE>353.4360</RA_OF_ASC_NODE><ARG_OF_PERICENTER>28.1988</ARG_OF_PERICENTER><MEAN_ANOMALY>92.4208</MEAN_ANOMALY></meanElements><tleParameters><EPHEMERIS_TYPE>0</EPHEMERIS_TYPE><CLASSIFICATION_TYPE>U</CLASSIFICATION_TYPE><NORAD_CAT_ID>33061</NORAD_CAT_ID><ELEMENT_SET_NO>999</ELEMENT_SET_NO><REV_AT_EPOCH>90252</REV_AT_EPOCH><BSTAR>.81476E-3</BSTAR><MEAN_MOTION_DOT>.609E-4</MEAN_MOTION_DOT><MEAN_MOTION_DDOT>0</MEAN_MOTION_DDOT></tleParameters></data></segment></body></omm>
<omm id="CCSDS_OMM_VERS" version="2.0">
<header><CREATION_DATE/><ORIGINATOR/></header><body><segment><metadata><OBJECT_NAME>ORBCOMM FM29</OBJECT_NAME><OBJECT_ID>2008-031C</OBJECT_ID><CENTER_NAME>EARTH</CENTER_NAME><REF_FRAME>TEME</REF_FRAME><TIME_SYSTEM>UTC</TIME_SYSTEM><MEAN_ELEMENT_THEORY>SGP4</MEAN_ELEMENT_THEORY></metadata><data><meanElements><EPOCH>2025-03-26T19:40:04.609056</EPOCH><MEAN_MOTION>14.80511767</MEAN_MOTION><ECCENTRICITY>.0006126</ECCENTRICITY><INCLINATION>48.4402</INCLINATION><RA_OF_ASC_NODE>3.0658</RA_OF_ASC_NODE><ARG_OF_PERICENTER>26.1500</ARG_OF_PERICENTER><MEAN_ANOMALY>15.6313</MEAN_ANOMALY></meanElements><tleParameters><EPHEMERIS_TYPE>0</EPHEMERIS_TYPE><CLASSIFICATION_TYPE>U</CLASSIFICATION_TYPE><NORAD_CAT_ID>33062</NORAD_CAT_ID><ELEMENT_SET_NO>999</ELEMENT_SET_NO><REV_AT_EPOCH>90194</REV_AT_EPOCH><BSTAR>.79715E-3</BSTAR><MEAN_MOTION_DOT>.5964E-4</MEAN_MOTION_DOT><MEAN_MOTION_DDOT>0</MEAN_MOTION_DDOT></tleParameters></data></segment></body></omm>
<omm id="CCSDS_OMM_VERS" version="2.0">
<header><CREATION_DATE/><ORIGINATOR/></header><body><segment><metadata><OBJECT_NAME>ORBCOMM FM39</OBJECT_NAME><OBJECT_ID>2008-031D</OBJECT_ID><CENTER_NAME>EARTH</CENTER_NAME><REF_FRAME>TEME</REF_FRAME><TIME_SYSTEM>UTC</TIME_SYSTEM><MEAN_ELEMENT_THEORY>SGP4</MEAN_ELEMENT_THEORY></metadata><data><meanElements><EPOCH>2025-03-26T21:33:35.638560</EPOCH><MEAN_MOTION>14.79124129</MEAN_MOTION><ECCENTRICITY>.0007258</ECCENTRICITY><INCLINATION>48.4407</INCLINATION><RA_OF_ASC_NODE>26.0750</RA_OF_ASC_NODE><ARG_OF_PERICENTER>359.1120</ARG_OF_PERICENTER><MEAN_ANOMALY>0.9781</MEAN_ANOMALY></meanElements><tleParameters><EPHEMERIS_TYPE>0</EPHEMERIS_TYPE><CLASSIFICATION_TYPE>U</CLASSIFICATION_TYPE><NORAD_CAT_ID>33063</NORAD_CAT_ID><ELEMENT_SET_NO>999</ELEMENT_SET_NO><REV_AT_EPOCH>90203</REV_AT_EPOCH><BSTAR>.8403E-3</BSTAR><MEAN_MOTION_DOT>.609E-4</MEAN_MOTION_DOT><MEAN_MOTION_DDOT>0</MEAN_MOTION_DDOT></tleParameters></data></segment></body></omm>

</ndm>
